EUTELSAT QUANTUM        
1 49056U 21069B   25299.19822208  .00000138  00000+0  00000+0 0  9991
2 49056   0.0540  67.5314 0002523 161.3834 285.0056  1.00272117 15585
EUTELSAT KONNECT VHTS   
1 53765U 22110A   25299.26062238  .00000029  00000+0  00000+0 0  9997
2 53765   0.0584  92.2930 0002615  96.6843 302.4557  1.00270089  4489
EUTELSAT HOTBIRD 13F    
1 54048U 22134A   25299.19419959  .00000099  00000+0  00000+0 0  9993
2 54048   0.0535 284.7974 0002137  82.8201 110.1501  1.00271380 11037
EUTELSAT HOTBIRD 13G    
1 54225U 22146A   25299.26270240  .00000100  00000+0  00000+0 0  9992
2 54225   0.0462 238.1445 0002130 296.9976 327.3314  1.00273908  5124
EUTELSAT 10B            
1 54259U 22157A   25299.26209573  .00000081  00000+0  00000+0 0  9990
2 54259   0.0600  90.2016 0001492  34.2117  14.8592  1.00273865 10681
EUTELSAT 36D            
1 59346U 24059A   25299.19588207  .00000168  00000+0  00000+0 0  9997
2 59346   0.0181 237.5461 0000244 180.8224  82.8390  1.00272647  5804
